STARLINK-35179          
1 66066U 25235J   25314.91667824 -.00089713  00000+0 -16220-2 0  9991
2 66066  53.1594  79.2522 0001350  56.1341 332.2839 15.49335741  4768
STARLINK-35401          
1 66067U 25235K   25314.91667824 -.00088804  00000+0 -16053-2 0  9996
2 66067  53.1594  79.2473 0001368  58.3033 332.0316 15.49335061  4713
STARLINK-35422          
1 66068U 25235L   25314.91667824 -.00074443  00000+0 -13423-2 0  9999
2 66068  53.1594  79.2439 0001396  57.9772 334.2734 15.49327900  4713
STARLINK-35279          
1 66069U 25235M   25314.91667824 -.00086334  00000+0 -15599-2 0  9998
2 66069  53.1594  79.2401 0001392  56.7940 337.3693 15.49336034  4764
STARLINK-35295          
1 66070U 25235N   25314.91667824 -.00081711  00000+0 -14752-2 0  9994
2 66070  53.1596  79.2329 0001274  87.6269 310.3705 15.49333517  4761
STARLINK-35323          
1 66071U 25235P   25314.91667824 -.00063238  00000+0 -11376-2 0  9998
2 66071  53.1595  79.2362 0001257  57.6894 338.3938 15.49322985  4765
STARLINK-35299          
1 66072U 25235Q   25314.91667824 -.02043270  00000+0 -47136-1 0  9997
2 66072  53.1601  79.2390 0000848  72.8669 321.2261 15.45495875  4764
STARLINK-35274          
1 66073U 25235R   25314.91667824 -.02070638  00000+0 -42932-1 0  9995
2 66073  53.1596  79.2240 0001318  68.5781 333.0189 15.48591055  4762
STARLINK-35321          
1 66074U 25235S   25314.91667824  .00005820  00000+0  11260-3 0  9995
2 66074  53.1595  79.2196 0001440  51.1360 352.6058 15.49312955  4762
STARLINK-35131          
1 66075U 25235T   25314.91667824 -.00088202  00000+0 -15941-2 0  9992
2 66075  53.1596  79.2071 0001337  54.8743 354.6246 15.49337046  4765
STARLINK-34801          
1 66076U 25235U   25314.91667824 -.00146630  00000+0 -26726-2 0  9996
2 66076  53.1597  79.2154 0001482  57.2542 348.4085 15.49365426  4769
STARLINK-35129          
1 66077U 25235V   25314.91667824 -.00100067  00000+0 -18120-2 0  9990
2 66077  53.1594  79.2119 0001406  57.7907 349.7909 15.49342732  4768
